STARLINK-3121
1 19428C 21104W   21326.14740598 -.00862849  00000-0 -32037-2 0  3267
2 19428  53.2176  90.8236 0024595  65.1794 236.0073 15.87684587    19
